{"type": "FeatureCollection", "features": [ {"type": "Feature", "properties": {"norad_id": 44543, "name": "BEIDOU-3 M23 (C45)", "group": "beidou", "lat": -22.300793520219855, "lon": 171.53730976202033, "alt_km": 21521.36287348968, "timestamp": "2025-12-23T05:02:12.296331+00:00", "meta": {"OBJECT_NAME": "BEIDOU-3 M23 (C45)", "OBJECT_ID": "2019-061B", "EPOCH": "2025-12-22T04:16:38.631360", "MEAN_MOTION": 1.86227761, "ECCENTRICITY": 0.00060882, "INCLINATION": 54.3995, "RA_OF_ASC_NODE": 188.6659, "ARG_OF_PERICENTER": 26.1092, "MEAN_ANOMALY": 334.4978, "EPHEMERIS_TYPE": 0, "CLASSIFICATION_TYPE": "U", "NORAD_CAT_ID": 44543, "ELEMENT_SET_NO": 999, "REV_AT_EPOCH": 4250, "BSTAR": 0, "MEAN_MOTION_DOT": 9.4e-07, "MEAN_MOTION_DDOT": 0}, "tle": {"line1": "1 44543U 19061B   25356.17822490  .00000094  00000+0  00000+0 0  9992", "line2": "2 44543  54.3995 188.6659 0006088  26.1092 334.4978  1.86227761 42501"}}, "geometry": {"type": "Point", "coordinates": [171.53730976202033, -22.300793520219855]}}, {"type": "Feature", "properties": {"norad_id": 44793, "name": "BEIDOU-3 M22 (C44)", "group": "beidou", "lat": 10.604258689523132, "lon": 118.2135100594783, "alt_km": 21540.323104149025, "timestamp": "2025-12-23T05:02:12.296342+00:00", "meta": {"OBJECT_NAME": "BEIDOU-3 M22 (C44)", "OBJECT_ID": "2019-078A", "EPOCH": "2025-12-21T21:17:38.154624", "MEAN_MOTION": 1.86232205, "ECCENTRICITY": 0.00060942, "INCLINATION": 54.1, "RA_OF_ASC_NODE": 306.0655, "ARG_OF_PERICENTER": 24.0092, "MEAN_ANOMALY": 336.0189, "EPHEMERIS_TYPE": 0, "CLASSIFICATION_TYPE": "U", "NORAD_CAT_ID": 44793, "ELEMENT_SET_NO": 999, "REV_AT_EPOCH": 4134, "BSTAR": 0, "MEAN_MOTION_DOT": -5.9e-07, "MEAN_MOTION_DDOT": 0}, "tle": {"line1": "1 44793U 19078A   25355.88724716 -.00000059  00000+0  00000+0 0  9998", "line2": "2 44793  54.1000 306.0655 0006094  24.0092 336.0189  1.86232205 41341"}}, "geometry": {"type": "Point", "coordinates": [118.2135100594783, 10.604258689523132]}}, {"type": "Feature", "properties": {"norad_id": 44794, "name": "BEIDOU-3 M21 (C43)", "group": "beidou", "lat": 51.25214641436171, "lon": 10.45228044426456, "alt_km": 21516.60849297139, "timestamp": "2025-12-23T05:02:12.296353+00:00", "meta": {"OBJECT_NAME": "BEIDOU-3 M21 (C43)", "OBJECT_ID": "2019-078B", "EPOCH": "2025-12-22T00:36:11.320992", "MEAN_MOTION": 1.86227906, "ECCENTRICITY": 0.00042988, "INCLINATION": 54.0732, "RA_OF_ASC_NODE": 306.0255, "ARG_OF_PERICENTER": 12.7951, "MEAN_ANOMALY": 347.2162, "EPHEMERIS_TYPE": 0, "CLASSIFICATION_TYPE": "U", "NORAD_CAT_ID": 44794, "ELEMENT_SET_NO": 999, "REV_AT_EPOCH": 4135, "BSTAR": 0, "MEAN_MOTION_DOT": -5.8e-07, "MEAN_MOTION_DDOT": 0}, "tle": {"line1": "1 44794U 19078B   25356.02513103 -.00000058  00000+0  00000+0 0  9991", "line2": "2 44794  54.0732 306.0255 0004298  12.7951 347.2162  1.86227906 41359"}}, "geometry": {"type": "Point", "coordinates": [10.45228044426456, 51.25214641436171]}}, {"type": "Feature", "properties": {"norad_id": 44864, "name": "BEIDOU-3 M19 (C41)", "group": "beidou", "lat": -56.42047043482275, "lon": -21.23043435040985, "alt_km": 21484.579965412962, "timestamp": "2025-12-23T05:02:12.296364+00:00", "meta": {"OBJECT_NAME": "BEIDOU-3 M19 (C41)", "OBJECT_ID": "2019-090A", "EPOCH": "2025-12-22T08:14:48.901056", "MEAN_MOTION": 1.86231645, "ECCENTRICITY": 0.00183489, "INCLINATION": 56.4008, "RA_OF_ASC_NODE": 68.6432, "ARG_OF_PERICENTER": 285.1191, "MEAN_ANOMALY": 124.2655, "EPHEMERIS_TYPE": 0, "CLASSIFICATION_TYPE": "U", "NORAD_CAT_ID": 44864, "ELEMENT_SET_NO": 999, "REV_AT_EPOCH": 4094, "BSTAR": 0, "MEAN_MOTION_DOT": -2.9e-07, "MEAN_MOTION_DDOT": 0}, "tle": {"line1": "1 44864U 19090A   25356.34362154 -.00000029  00000+0  00000+0 0  9994", "line2": "2 44864  56.4008  68.6432 0018348 285.1191 124.2655  1.86231645 40949"}}, "geometry": {"type": "Point", "coordinates": [-21.23043435040985, -56.42047043482275]}}, {"type": "Feature", "properties": {"norad_id": 44865, "name": "BEIDOU-3 M20 (C42)", "group": "beidou", "lat": -0.10522625650174049, "lon": 68.59824718051735, "alt_km": 21508.435171038964, "timestamp": "2025-12-23T05:02:12.296375+00:00", "meta": {"OBJECT_NAME": "BEIDOU-3 M20 (C42)", "OBJECT_ID": "2019-090B", "EPOCH": "2025-12-22T16:05:30.934752", "MEAN_MOTION": 1.86231578, "ECCENTRICITY": 0.00154965, "INCLINATION": 56.4027, "RA_OF_ASC_NODE": 68.6668, "ARG_OF_PERICENTER": 297.2776, "MEAN_ANOMALY": 60.8731, "EPHEMERIS_TYPE": 0, "CLASSIFICATION_TYPE": "U", "NORAD_CAT_ID": 44865, "ELEMENT_SET_NO": 999, "REV_AT_EPOCH": 4092, "BSTAR": 0, "MEAN_MOTION_DOT": -2.8e-07, "MEAN_MOTION_DDOT": 0}, "tle": {"line1": "1 44865U 19090B   25356.67049693 -.00000028  00000+0  00000+0 0  9990", "line2": "2 44865  56.4027  68.6668 0015496 297.2776  60.8731  1.86231578 40929"}}, "geometry": {"type": "Point", "coordinates": [68.59824718051735, -0.10522625650174049]}}, {"type": "Feature", "properties": {"norad_id": 45344, "name": "BEIDOU-3 G2 (C60)", "group": "beidou", "lat": -1.0269362953919228, "lon": -112.44013174203451, "alt_km": 35778.26427669889, "timestamp": "2025-12-23T05:02:12.296386+00:00", "meta": {"OBJECT_NAME": "BEIDOU-3 G2 (C60)", "OBJECT_ID": "2020-017A", "EPOCH": "2025-12-19T13:38:45.370752", "MEAN_MOTION": 1.00273166, "ECCENTRICITY": 0.0002079, "INCLINATION": 2.5096, "RA_OF_ASC_NODE": 44.0024, "ARG_OF_PERICENTER": 233.0917, "MEAN_ANOMALY": 96.0359, "EPHEMERIS_TYPE": 0, "CLASSIFICATION_TYPE": "U", "NORAD_CAT_ID": 45344, "ELEMENT_SET_NO": 999, "REV_AT_EPOCH": 2145, "BSTAR": 0, "MEAN_MOTION_DOT": -1.18e-06, "MEAN_MOTION_DDOT": 0}, "tle": {"line1": "1 45344U 20017A   25353.56858068 -.00000118  00000+0  00000+0 0  9993", "line2": "2 45344   2.5096  44.0024 0002079 233.0917  96.0359  1.00273166 21451"}}, "geometry": {"type": "Point", "coordinates": [-112.44013174203451, -1.0269362953919228]}}, {"type": "Feature", "properties": {"norad_id": 45807, "name": "BEIDOU-3 G3 (C61)", "group": "beidou", "lat": -1.0723645617466617, "lon": -81.9839883422924, "alt_km": 35790.829335387854, "timestamp": "2025-12-23T05:02:12.296399+00:00", "meta": {"OBJECT_NAME": "BEIDOU-3 G3 (C61)", "OBJECT_ID": "2020-040A", "EPOCH": "2025-12-22T22:15:02.225376", "MEAN_MOTION": 1.00269046, "ECCENTRICITY": 0.00065459, "INCLINATION": 2.0143, "RA_OF_ASC_NODE": 66.6672, "ARG_OF_PERICENTER": 309.2145, "MEAN_ANOMALY": 160.1609, "EPHEMERIS_TYPE": 0, "CLASSIFICATION_TYPE": "U", "NORAD_CAT_ID": 45807, "ELEMENT_SET_NO": 999, "REV_AT_EPOCH": 2030, "BSTAR": 0, "MEAN_MOTION_DOT": -3.33e-06, "MEAN_MOTION_DDOT": 0}, "tle": {"line1": "1 45807U 20040A   25356.92710909 -.00000333  00000+0  00000+0 0  9996", "line2": "2 45807   2.0143  66.6672 0006545 309.2145 160.1609  1.00269046 20309"}}, "geometry": {"type": "Point", "coordinates": [-81.9839883422924, -1.0723645617466617]}}, {"type": "Feature", "properties": {"norad_id": 56564, "name": "BEIDOU-3 G4 (C62)", "group": "beidou", "lat": 0.31754208463514544, "lon": -32.386948846299845, "alt_km": 35796.50528380536, "timestamp": "2025-12-23T05:02:12.296411+00:00", "meta": {"OBJECT_NAME": "BEIDOU-3 G4 (C62)", "OBJECT_ID": "2023-066A", "EPOCH": "2025-12-22T22:29:08.375136", "MEAN_MOTION": 1.00271206, "ECCENTRICITY": 0.00026513, "INCLINATION": 0.7938, "RA_OF_ASC_NODE": 302.8252, "ARG_OF_PERICENTER": 227.2007, "MEAN_ANOMALY": 59.0519, "EPHEMERIS_TYPE": 0, "CLASSIFICATION_TYPE": "U", "NORAD_CAT_ID": 56564, "ELEMENT_SET_NO": 999, "REV_AT_EPOCH": 962, "BSTAR": 0, "MEAN_MOTION_DOT": -8.9e-07, "MEAN_MOTION_DDOT": 0}, "tle": {"line1": "1 56564U 23066A   25356.93690249 -.00000089  00000+0  00000+0 0  9992", "line2": "2 56564   0.7938 302.8252 0002651 227.2007  59.0519  1.00271206  9626"}}, "geometry": {"type": "Point", "coordinates": [-32.386948846299845, 0.31754208463514544]}}, {"type": "Feature", "properties": {"norad_id": 58654, "name": "BEIDOU-3 M28 (C50)", "group": "beidou", "lat": 17.912710768908607, "lon": 81.04717395962662, "alt_km": 21528.47588602652, "timestamp": "2025-12-23T05:02:12.296422+00:00", "meta": {"OBJECT_NAME": "BEIDOU-3 M28 (C50)", "OBJECT_ID": "2023-207A", "EPOCH": "2025-12-22T15:21:59.092992", "MEAN_MOTION": 1.86229743, "ECCENTRICITY": 0.00028082, "INCLINATION": 55.5929, "RA_OF_ASC_NODE": 68.2662, "ARG_OF_PERICENTER": 274.2836, "MEAN_ANOMALY": 85.7355, "EPHEMERIS_TYPE": 0, "CLASSIFICATION_TYPE": "U", "NORAD_CAT_ID": 58654, "ELEMENT_SET_NO": 999, "REV_AT_EPOCH": 1355, "BSTAR": 0, "MEAN_MOTION_DOT": -3e-07, "MEAN_MOTION_DDOT": 0}, "tle": {"line1": "1 58654U 23207A   25356.64026728 -.00000030  00000+0  00000+0 0  9990", "line2": "2 58654  55.5929  68.2662 0002808 274.2836  85.7355  1.86229743 13554"}}, "geometry": {"type": "Point", "coordinates": [81.04717395962662, 17.912710768908607]}}, {"type": "Feature", "properties": {"norad_id": 58655, "name": "BEIDOU-3 M26 (C48)", "group": "beidou", "lat": 18.3576473034924, "lon": -124.87348023437313, "alt_km": 21528.245435121044, "timestamp": "2025-12-23T05:02:12.296433+00:00", "meta": {"OBJECT_NAME": "BEIDOU-3 M26 (C48)", "OBJECT_ID": "2023-207B", "EPOCH": "2025-12-22T10:30:28.326240", "MEAN_MOTION": 1.86231247, "ECCENTRICITY": 0.00041599, "INCLINATION": 55.5947, "RA_OF_ASC_NODE": 68.2593, "ARG_OF_PERICENTER": 259.3765, "MEAN_ANOMALY": 100.6271, "EPHEMERIS_TYPE": 0, "CLASSIFICATION_TYPE": "U", "NORAD_CAT_ID": 58655, "ELEMENT_SET_NO": 999, "REV_AT_EPOCH": 1353, "BSTAR": 0, "MEAN_MOTION_DOT": -3e-07, "MEAN_MOTION_DDOT": 0}, "tle": {"line1": "1 58655U 23207B   25356.43782785 -.00000030  00000+0  00000+0 0  9990", "line2": "2 58655  55.5947  68.2593 0004159 259.3765 100.6271  1.86231247 13538"}}, "geometry": {"type": "Point", "coordinates": [-124.87348023437313, 18.3576473034924]}}]}